386P/PANSTARRS,e,15.2290,134.9484,353.2679,4.058420,0.1205504,0.41646279,348.7385,05/18.0/2020,2000,g 14.5,4.0
# From MPEC 2020-C98
387P/Boattini,e,8.9170,259.3392,162.7932,4.801328,0.0936833,0.73597241,23.8736,05/18.0/2020,2000,g 15.0,4.0
# From MPEC 2020-HN5
388P/Gibbs,e,23.8592,37.0520,42.4085,5.247848,0.0819846,0.61798238,24.5472,05/18.0/2020,2000,g 13.0,4.0
# From MPC118845
389P/Siding Spring,e,160.0671,218.8468,249.2965,5.629445,0.0737914,0.70454872,10.3846,05/18.0/2020,2000,g 16.0,4.0
# From MPEC 2020-C98
390P/Gibbs,e,18.5590,152.2803,232.3377,5.797942,0.0705981,0.70683019,4.0080,05/18.0/2020,2000,g 12.0,4.0
# From MPEC 2020-AA5
391P/Kowalski,e,21.2761,124.7316,186.6159,4.675283,0.0974972,0.12081840,77.1771,05/18.0/2020,2000,g  8.0,4.0
# From MPEC 2020-HN5
392P/LINEAR,e,4.9294,24.8868,71.9951,6.150071,0.0646225,0.68289220,3.0474,05/18.0/2020,2000,g 14.5,4.0
# From MPC118845
393P/Spacewatch-Hill,e,16.7966,36.4213,327.9861,4.782851,0.0942267,0.12006556,19.5456,05/18.0/2020,2000,g 11.0,4.0
# From MPEC 2020-HN5
394P/,e,8.5295,98.1257,54.5232,4.333855,0.1092427,0.36824175,18.5235,05/18.0/2020,2000,g 16.0,2.4
# From MPC107687
1I/`Oumuamua,h,09/09.4886/2017,122.6778,24.5997,241.6845,1.199252,0.255240,2000,23.0,2.0
# From MPEC 2020-HN5
2I/Borisov,h,12/08.5530/2019,44.0527,308.1479,209.1240,3.356641,2.006542,2000,11.0,4.0
